start=new Date('2022-04-29T00:00:00.000Z').valueOf();
sats=[{"EPHEMERIS_TYPE":"0","TLE_LINE1":"1 44741U 19074AE  22118.25005267  .00001402  00000-0  11302-3 0  9999","COUNTRY_CODE":"US","OBJECT_TYPE":"PAYLOAD","MEAN_ANOMALY":"309.3785","FILE":"3420061","PERIAPSIS":"546.076","TIME_SYSTEM":"UTC","PERIOD":"95.592","SEMIMAJOR_AXIS":"6925.345","NORAD_CAT_ID":"44741","MEAN_MOTION_DOT":"0.00001402","REV_AT_EPOCH":"13573","INCLINATION":"53.0553","RA_OF_ASC_NODE":"62.8104","ARG_OF_PERICENTER":"50.7349","GP_ID":"202215998","ECCENTRICITY":"0.00016370","ELEMENT_SET_NO":"999","CLASSIFICATION_TYPE":"U","REF_FRAME":"TEME","CENTER_NAME":"EARTH","MEAN_MOTION_DDOT":"0.0000000000000","BSTAR":"0.00011302000000","MEAN_MOTION":"15.06401118","APOAPSIS":"548.344","OBJECT_ID":"2019-074AE","RCS_SIZE":"LARGE","EPOCH":"2022-04-28T06:00:04.550688","SITE":"AFETR","DECAY_DATE":null,"LAUNCH_DATE":"2019-11-11","MEAN_ELEMENT_THEORY":"SGP4","OBJECT_NAME":"STARLINK-1036","TLE_LINE2":"2 44741  53.0553  62.8104 0001637  50.7349 309.3785 15.06401118135730"},{"EPHEMERIS_TYPE":"0","TLE_LINE1":"1 44742U 19074AF  22118.53644447  .00038743  00000-0  21341-2 0  9991","PERIAPSIS":"523.639","TIME_SYSTEM":"UTC","FILE":"3420061","COUNTRY_CODE":"US","MEAN_ANOMALY":"287.0179","OBJECT_TYPE":"PAYLOAD","RA_OF_ASC_NODE":"48.9308","INCLINATION":"52.9964","REV_AT_EPOCH":"13591","SEMIMAJOR_AXIS":"6903.165","PERIOD":"95.133","MEAN_MOTION_DOT":"0.00038743","NORAD_CAT_ID":"44742","CENTER_NAME":"EARTH","REF_FRAME":"TEME","CLASSIFICATION_TYPE":"U","BSTAR":"0.00213410000000","MEAN_MOTION_DDOT":"0.0000000000000","ARG_OF_PERICENTER":"73.1034","ELEMENT_SET_NO":"999","ECCENTRICITY":"0.00020150","GP_ID":"202214247","RCS_SIZE":"LARGE","SITE":"AFETR","DECAY_DATE":null,"EPOCH":"2022-04-28T12:52:28.802208","APOAPSIS":"526.421","MEAN_MOTION":"15.13667008","OBJECT_ID":"2019-074AF","OBJECT_NAME":"STARLINK-1037","TLE_LINE2":"2 44742  52.9964  48.9308 0002015  73.1034 287.0179 15.13667008135916","MEAN_ELEMENT_THEORY":"SGP4","LAUNCH_DATE":"2019-11-11"},{"COUNTRY_CODE":"US","MEAN_ANOMALY":"304.0237","OBJECT_TYPE":"PAYLOAD","TIME_SYSTEM":"UTC","PERIAPSIS":"545.871","FILE":"3420223","TLE_LINE1":"1 44743U 19074AG  22118.63154083  .00003034  00000-0  22247-3 0  9997","EPHEMERIS_TYPE":"0","MEAN_ELEMENT_THEORY":"SGP4","LAUNCH_DATE":"2019-11-11","OBJECT_NAME":"STARLINK-1038","TLE_LINE2":"2 44743  53.0551  81.1033 0001914  56.0933 304.0237 15.06405527135687","MEAN_MOTION":"15.06405527","APOAPSIS":"548.522","OBJECT_ID":"2019-074AG","RCS_SIZE":"LARGE","DECAY_DATE":null,"SITE":"AFETR","EPOCH":"2022-04-28T15:09:25.127712","ARG_OF_PERICENTER":"56.0933","ECCENTRICITY":"0.00019140","ELEMENT_SET_NO":"999","GP_ID":"202224740","CENTER_NAME":"EARTH","REF_FRAME":"TEME","CLASSIFICATION_TYPE":"U","BSTAR":"0.00022247000000","MEAN_MOTION_DDOT":"0.0000000000000","SEMIMAJOR_AXIS":"6925.332","PERIOD":"95.592","MEAN_MOTION_DOT":"0.00003034","NORAD_CAT_ID":"44743","INCLINATION":"53.0551","RA_OF_ASC_NODE":"81.1033","REV_AT_EPOCH":"13568"},{"CLASSIFICATION_TYPE":"U","REF_FRAME":"TEME","CENTER_NAME":"EARTH","MEAN_MOTION_DDOT":"0.0000000000000","BSTAR":"0.00003768400000","ARG_OF_PERICENTER":"58.9740","GP_ID":"202215246","ELEMENT_SET_NO":"999","ECCENTRICITY":"0.00017440","INCLINATION":"53.0564","REV_AT_EPOCH":"13544","RA_OF_ASC_NODE":"83.1361","PERIOD":"95.592","SEMIMAJOR_AXIS":"6925.337","NORAD_CAT_ID":"44744","MEAN_MOTION_DOT":"0.00000280","OBJECT_NAME":"STARLINK-1039","TLE_LINE2":"2 44744  53.0564  83.1361 0001744  58.9740 301.1420 15.06403855135444","LAUNCH_DATE":"2019-11-11","MEAN_ELEMENT_THEORY":"SGP4","RCS_SIZE":"LARGE","EPOCH":"2022-04-28T04:16:34.526496","DECAY_DATE":null,"SITE":"AFETR","OBJECT_ID":"2019-074AH","APOAPSIS":"548.410","MEAN_MOTION":"15.06403855","TLE_LINE1":"1 44744U 19074AH  22118.17817739  .00000280  00000-0  37684-4 0  9993","EPHEMERIS_TYPE":"0","FILE":"3420061","PERIAPSIS":"545.994","TIME_SYSTEM":"UTC","COUNTRY_CODE":"US","OBJECT_TYPE":"PAYLOAD","MEAN_ANOMALY":"301.1420"},{"EPHEMERIS_TYPE":"0","TLE_LINE1":"1 44746U 19074AK  22118.62785769  .00001396  00000-0  11262-3 0  9994","MEAN_ANOMALY":"310.5707","OBJECT_TYPE":"PAYLOAD","COUNTRY_CODE":"US","TIME_SYSTEM":"UTC","PERIAPSIS":"546.028","FILE":"3420224","MEAN_MOTION_DOT":"0.00001396","NORAD_CAT_ID":"44746","SEMIMAJOR_AXIS":"6925.336","PERIOD":"95.592","RA_OF_ASC_NODE":"81.1296","INCLINATION":"53.0556","REV_AT_EPOCH":"13568","ECCENTRICITY":"0.00016940","ELEMENT_SET_NO":"999","GP_ID":"202224750","ARG_OF_PERICENTER":"49.5429","BSTAR":"0.00011262000000","MEAN_MOTION_DDOT":"0.0000000000000","REF_FRAME":"TEME","CENTER_NAME":"EARTH","CLASSIFICATION_TYPE":"U","APOAPSIS":"548.374","OBJECT_ID":"2019-074AK","MEAN_MOTION":"15.06404181","SITE":"AFETR","DECAY_DATE":null,"EPOCH":"2022-04-28T15:04:06.904416","RCS_SIZE":"LARGE","MEAN_ELEMENT_THEORY":"SGP4","LAUNCH_DATE":"2019-11-11","TLE_LINE2":"2 44746  53.0556  81.1296 0001694  49.5429 310.5707 15.06404181135687","OBJECT_NAME":"STARLINK-1041"},{"EPHEMERIS_TYPE":"0","TLE_LINE1":"1 44747U 19074AL  22118.32561160  .00000541  00000-0  55217-4 0  9999","COUNTRY_CODE":"US","OBJECT_TYPE":"PAYLOAD","MEAN_ANOMALY":"310.8087","FILE":"3420061","TIME_SYSTEM":"UTC","PERIAPSIS":"546.090","PERIOD":"95.592","SEMIMAJOR_AXIS":"6925.335","NORAD_CAT_ID":"44747","MEAN_MOTION_DOT":"0.00000541","RA_OF_ASC_NODE":"82.4819","REV_AT_EPOCH":"13547","INCLINATION":"53.0571","ARG_OF_PERICENTER":"49.3041","GP_ID":"202214748","ELEMENT_SET_NO":"999","ECCENTRICITY":"0.00016030","CLASSIFICATION_TYPE":"U","REF_FRAME":"TEME","CENTER_NAME":"EARTH","MEAN_MOTION_DDOT":"0.0000000000000","BSTAR":"0.00005521700000","APOAPSIS":"548.310","MEAN_MOTION":"15.06404342","OBJECT_ID":"2019-074AL","RCS_SIZE":"LARGE","EPOCH":"2022-04-28T07:48:52.842240","SITE":"AFETR","DECAY_DATE":null,"LAUNCH_DATE":"2019-11-11","MEAN_ELEMENT_THEORY":"SGP4","OBJECT_NAME":"STARLINK-1042","TLE_LINE2":"2 44747  53.0571  82.4819 0001603  49.3041 310.8087 15.06404342135478"},{"LAUNCH_DATE":"2019-11-11","MEAN_ELEMENT_THEORY":"SGP4","TLE_LINE2":"2 44748  53.0559  82.0415 0001513  62.5271 297.5871 15.06400827135482","OBJECT_NAME":"STARLINK-1043","OBJECT_ID":"2019-074AM","APOAPSIS":"548.259","MEAN_MOTION":"15.06400827","EPOCH":"2022-04-28T10:06:52.907616","SITE":"AFETR","DECAY_DATE":null,"RCS_SIZE":"LARGE","GP_ID":"202214498","ELEMENT_SET_NO":"999","ECCENTRICITY":"0.00015130","ARG_OF_PERICENTER":"62.5271","MEAN_MOTION_DDOT":"0.0000000000000","BSTAR":"0.00016480000000","CLASSIFICATION_TYPE":"U","CENTER_NAME":"EARTH","REF_FRAME":"TEME","NORAD_CAT_ID":"44748","MEAN_MOTION_DOT":"0.00002174","PERIOD":"95.592","SEMIMAJOR_AXIS":"6925.346","RA_OF_ASC_NODE":"82.0415","INCLINATION":"53.0559","REV_AT_EPOCH":"13548","MEAN_ANOMALY":"297.5871","OBJECT_TYPE":"PAYLOAD","COUNTRY_CODE":"US","FILE":"3420061","PERIAPSIS":"546.163","TIME_SYSTEM":"UTC","TLE_LINE1":"1 44748U 19074AM  22118.42144569  .00002174  00000-0  16480-3 0  9993","EPHEMERIS_TYPE":"0"},{"EPHEMERIS_TYPE":"0","TLE_LINE1":"1 44751U 19074AQ  22118.30349650  .00010115  00000-0  69668-3 0  9992","PERIAPSIS":"545.870","TIME_SYSTEM":"UTC","FILE":"3420061","COUNTRY_CODE":"US","MEAN_ANOMALY":"308.6196","OBJECT_TYPE":"PAYLOAD","INCLINATION":"53.0536","RA_OF_ASC_NODE":"82.5803","REV_AT_EPOCH":"13546","SEMIMAJOR_AXIS":"6925.302","PERIOD":"95.591","MEAN_MOTION_DOT":"0.00010115","NORAD_CAT_ID":"44751","REF_FRAME":"TEME","CENTER_NAME":"EARTH","CLASSIFICATION_TYPE":"U","BSTAR":"0.00069668000000","MEAN_MOTION_DDOT":"0.0000000000000","ARG_OF_PERICENTER":"51.4961","ECCENTRICITY":"0.00018730","ELEMENT_SET_NO":"999","GP_ID":"202215747","RCS_SIZE":"LARGE","SITE":"AFETR","DECAY_DATE":null,"EPOCH":"2022-04-28T07:17:02.097600","APOAPSIS":"548.464","MEAN_MOTION":"15.06415185","OBJECT_ID":"2019-074AQ","OBJECT_NAME":"STARLINK-1046","TLE_LINE2":"2 44751  53.0536  82.5803 0001873  51.4961 308.6196 15.06415185135464","MEAN_ELEMENT_THEORY":"SGP4","LAUNCH_DATE":"2019-11-11"},{"MEAN_MOTION":"15.06415195","APOAPSIS":"548.436","OBJECT_ID":"2019-074AR","RCS_SIZE":"LARGE","EPOCH":"2022-04-28T06:10:41.100960","DECAY_DATE":null,"SITE":"AFETR","LAUNCH_DATE":"2019-11-11","MEAN_ELEMENT_THEORY":"SGP4","OBJECT_NAME":"STARLINK-1047","TLE_LINE2":"2 44752  53.0566  62.7897 0001833  47.9717 312.1428 15.06415195135735","PERIOD":"95.591","SEMIMAJOR_AXIS":"6925.302","NORAD_CAT_ID":"44752","MEAN_MOTION_DOT":"0.00005541","INCLINATION":"53.0566","RA_OF_ASC_NODE":"62.7897","REV_AT_EPOCH":"13573","ARG_OF_PERICENTER":"47.9717","GP_ID":"202215999","ELEMENT_SET_NO":"999","ECCENTRICITY":"0.00018330","CLASSIFICATION_TYPE":"U","REF_FRAME":"TEME","CENTER_NAME":"EARTH","MEAN_MOTION_DDOT":"0.0000000000000","BSTAR":"0.00039044000000","COUNTRY_CODE":"US","MEAN_ANOMALY":"312.1428","OBJECT_TYPE":"PAYLOAD","FILE":"3420061","TIME_SYSTEM":"UTC","PERIAPSIS":"545.898","EPHEMERIS_TYPE":"0","TLE_LINE1":"1 44752U 19074AR  22118.25742015  .00005541  00000-0  39044-3 0  9991"},{"BSTAR":"0.00012438000000","MEAN_MOTION_DDOT":"0.0000000000000","REF_FRAME":"TEME","CENTER_NAME":"EARTH","CLASSIFICATION_TYPE":"U","ECCENTRICITY":"0.00011500","ELEMENT_SET_NO":"999","GP_ID":"202224323","ARG_OF_PERICENTER":"69.5675","REV_AT_EPOCH":"13626","INCLINATION":"53.0568","RA_OF_ASC_NODE":"40.3718","MEAN_MOTION_DOT":"0.00001572","NORAD_CAT_ID":"44753","SEMIMAJOR_AXIS":"6925.320","PERIOD":"95.592","TLE_LINE2":"2 44753  53.0568  40.3718 0001150  69.5675 290.5438 15.06409319136267","OBJECT_NAME":"STARLINK-1048","MEAN_ELEMENT_THEORY":"SGP4","LAUNCH_DATE":"2019-11-11","SITE":"AFETR","DECAY_DATE":null,"EPOCH":"2022-04-28T19:02:57.315552","RCS_SIZE":"LARGE","APOAPSIS":"547.981","MEAN_MOTION":"15.06409319","OBJECT_ID":"2019-074AS","TLE_LINE1":"1 44753U 19074AS  22118.79371893  .00001572  00000-0  12438-3 0  9991","EPHEMERIS_TYPE":"0","TIME_SYSTEM":"UTC","PERIAPSIS":"546.389","FILE":"3420229","MEAN_ANOMALY":"290.5438","OBJECT_TYPE":"PAYLOAD","COUNTRY_CODE":"US"}];
